COSMOS 2242             
1 22626U 93024A   26079.19997871  .00001712  00000+0  14786-3 0  9990
2 22626  82.5152 256.6604 0014937 270.2760  89.6750 14.96590356781964
SL-16 R/B               
1 22803U 93059B   26079.20525241  .00000227  00000+0  13620-3 0  9991
2 22803  70.9931 348.9528 0017919 201.2387 158.7995 14.17233892681026
ARIANE 40 R/B           
1 22830U 93061H   26079.17313161  .00000162  00000+0  75048-4 0  9997
2 22830  98.4896 147.8530 0009649 250.3812 109.6331 14.32866037695607
COSMOS 2278             
1 23087U 94023A   26079.27697027 -.00000192  00000+0 -75579-4 0  9992
2 23087  71.0540 152.9496 0008758 355.2414   4.8623 14.14378475646303
SL-16 R/B               
1 23088U 94023B   26079.10662315  .00000041  00000+0  45706-4 0  9997
2 23088  70.9994  49.0084 0005507 275.4509  84.5985 14.15010241647561
SL-16 R/B               
1 23343U 94074B   26079.06738575  .00000397  00000+0  59794-4 0  9990
2 23343  97.7094 109.4644 0006605 174.7822 210.9630 14.79419423688781
SL-16 R/B               
1 23405U 94077B   26079.15485002  .00000298  00000+0  17679-3 0  9991
2 23405  70.9848 330.4741 0002479 200.3574 159.7451 14.15566123617715
ARIANE 40+ R/B          
1 23561U 95021B   26079.17036735  .00000228  00000+0  86414-4 0  9998
2 23561  98.4478 150.5101 0007932 109.2400 305.3389 14.39779426620752
SL-16 R/B               
1 23705U 95058B   26079.30367132  .00000008  00000+0  28235-4 0  9994
2 23705  71.0221 157.9730 0010285 106.2330 253.9925 14.15500744569359
SL-16 R/B               
1 24298U 96051B   26079.29342683  .00000094  00000+0  77352-4 0  9997
2 24298  70.7597 152.7964 0014184 131.3765 228.8577 14.12418460523145
ORBVIEW 2 (SEASTAR)     
1 24883U 97037A   26079.29138135  .00000217  00000+0  91740-4 0  9991
2 24883  98.8584 243.8850 0002771  49.5766 310.5660 14.35502008509994
SL-16 R/B               
1 25400U 98043G   26079.25608812  .00000041  00000+0  36277-4 0  9994
2 25400  98.8273  32.6954 0009657 350.2730   9.8261 14.26052051440499
