CCSDS_OMM_VERS = 2.0
CREATION_DATE  = 
ORIGINATOR     = 

OBJECT_NAME    = COSMOS 2242
OBJECT_ID      = 1993-024A
CENTER_NAME    = EARTH
REF_FRAME      = TEME
TIME_SYSTEM    = UTC
MEAN_ELEMENT_THEORY = SGP/SGP4

EPOCH          = 2026-03-20T04:47:58.160544
MEAN_MOTION    = 14.96590356
ECCENTRICITY   = .00149378
INCLINATION    = 82.5152
RA_OF_ASC_NODE = 256.6604
ARG_OF_PERICENTER = 270.2760
MEAN_ANOMALY   = 89.6750

EPHEMERIS_TYPE = 0
CLASSIFICATION_TYPE = U
NORAD_CAT_ID   = 22626
ELEMENT_SET_NO = 999
REV_AT_EPOCH   = 78196
BSTAR          = .14786169E-3
MEAN_MOTION_DOT = .1712E-4
MEAN_MOTION_DDOT = 0

CCSDS_OMM_VERS = 2.0
CREATION_DATE  = 
ORIGINATOR     = 

OBJECT_NAME    = SL-16 R/B
OBJECT_ID      = 1993-059B
CENTER_NAME    = EARTH
REF_FRAME      = TEME
TIME_SYSTEM    = UTC
MEAN_ELEMENT_THEORY = SGP/SGP4

EPOCH          = 2026-03-20T04:55:33.808224
MEAN_MOTION    = 14.17233892
ECCENTRICITY   = .00179199
INCLINATION    = 70.9931
RA_OF_ASC_NODE = 348.9528
ARG_OF_PERICENTER = 201.2387
MEAN_ANOMALY   = 158.7995

EPHEMERIS_TYPE = 0
CLASSIFICATION_TYPE = U
NORAD_CAT_ID   = 22803
ELEMENT_SET_NO = 999
REV_AT_EPOCH   = 68102
BSTAR          = .13619924E-3
MEAN_MOTION_DOT = .227E-5
MEAN_MOTION_DDOT = 0

CCSDS_OMM_VERS = 2.0
CREATION_DATE  = 
ORIGINATOR     = 

OBJECT_NAME    = ARIANE 40 R/B
OBJECT_ID      = 1993-061H
CENTER_NAME    = EARTH
REF_FRAME      = TEME
TIME_SYSTEM    = UTC
MEAN_ELEMENT_THEORY = SGP/SGP4

EPOCH          = 2026-03-20T04:09:18.571104
MEAN_MOTION    = 14.32866037
ECCENTRICITY   = .00096499
INCLINATION    = 98.4896
RA_OF_ASC_NODE = 147.8530
ARG_OF_PERICENTER = 250.3812
MEAN_ANOMALY   = 109.6331

EPHEMERIS_TYPE = 0
CLASSIFICATION_TYPE = U
NORAD_CAT_ID   = 22830
ELEMENT_SET_NO = 999
REV_AT_EPOCH   = 69560
BSTAR          = .75047547E-4
MEAN_MOTION_DOT = .162E-5
MEAN_MOTION_DDOT = 0

CCSDS_OMM_VERS = 2.0
CREATION_DATE  = 
ORIGINATOR     = 

OBJECT_NAME    = COSMOS 2278
OBJECT_ID      = 1994-023A
CENTER_NAME    = EARTH
REF_FRAME      = TEME
TIME_SYSTEM    = UTC
MEAN_ELEMENT_THEORY = SGP/SGP4

EPOCH          = 2026-03-20T06:38:50.231328
MEAN_MOTION    = 14.14378475
ECCENTRICITY   = .00087588
INCLINATION    = 71.0540
RA_OF_ASC_NODE = 152.9496
ARG_OF_PERICENTER = 355.2414
MEAN_ANOMALY   = 4.8623

EPHEMERIS_TYPE = 0
CLASSIFICATION_TYPE = U
NORAD_CAT_ID   = 23087
ELEMENT_SET_NO = 999
REV_AT_EPOCH   = 64630
BSTAR          = -.75578639E-4
MEAN_MOTION_DOT = -.192E-5
MEAN_MOTION_DDOT = 0

CCSDS_OMM_VERS = 2.0
CREATION_DATE  = 
ORIGINATOR     = 

OBJECT_NAME    = SL-16 R/B
OBJECT_ID      = 1994-023B
CENTER_NAME    = EARTH
REF_FRAME      = TEME
TIME_SYSTEM    = UTC
MEAN_ELEMENT_THEORY = SGP/SGP4

EPOCH          = 2026-03-20T02:33:32.240160
MEAN_MOTION    = 14.15010241
ECCENTRICITY   = .00055073
INCLINATION    = 70.9994
RA_OF_ASC_NODE = 49.0084
ARG_OF_PERICENTER = 275.4509
MEAN_ANOMALY   = 84.5985

EPHEMERIS_TYPE = 0
CLASSIFICATION_TYPE = U
NORAD_CAT_ID   = 23088
ELEMENT_SET_NO = 999
REV_AT_EPOCH   = 64756
BSTAR          = .45705929E-4
MEAN_MOTION_DOT = .41E-6
MEAN_MOTION_DDOT = 0

CCSDS_OMM_VERS = 2.0
CREATION_DATE  = 
ORIGINATOR     = 

OBJECT_NAME    = SL-16 R/B
OBJECT_ID      = 1994-074B
CENTER_NAME    = EARTH
REF_FRAME      = TEME
TIME_SYSTEM    = UTC
MEAN_ELEMENT_THEORY = SGP/SGP4

EPOCH          = 2026-03-20T01:37:02.128800
MEAN_MOTION    = 14.79419423
ECCENTRICITY   = .00066053
INCLINATION    = 97.7094
RA_OF_ASC_NODE = 109.4644
ARG_OF_PERICENTER = 174.7822
MEAN_ANOMALY   = 210.9630

EPHEMERIS_TYPE = 0
CLASSIFICATION_TYPE = U
NORAD_CAT_ID   = 23343
ELEMENT_SET_NO = 999
REV_AT_EPOCH   = 68878
BSTAR          = .59793514E-4
MEAN_MOTION_DOT = .397E-5
MEAN_MOTION_DDOT = 0

CCSDS_OMM_VERS = 2.0
CREATION_DATE  = 
ORIGINATOR     = 

OBJECT_NAME    = SL-16 R/B
OBJECT_ID      = 1994-077B
CENTER_NAME    = EARTH
REF_FRAME      = TEME
TIME_SYSTEM    = UTC
MEAN_ELEMENT_THEORY = SGP/SGP4

EPOCH          = 2026-03-20T03:42:59.041728
MEAN_MOTION    = 14.15566123
ECCENTRICITY   = .00024794
INCLINATION    = 70.9848
RA_OF_ASC_NODE = 330.4741
ARG_OF_PERICENTER = 200.3574
MEAN_ANOMALY   = 159.7451

EPHEMERIS_TYPE = 0
CLASSIFICATION_TYPE = U
NORAD_CAT_ID   = 23405
ELEMENT_SET_NO = 999
REV_AT_EPOCH   = 61771
BSTAR          = .17679263E-3
MEAN_MOTION_DOT = .298E-5
MEAN_MOTION_DDOT = 0

CCSDS_OMM_VERS = 2.0
CREATION_DATE  = 
ORIGINATOR     = 

OBJECT_NAME    = ARIANE 40+ R/B
OBJECT_ID      = 1995-021B
CENTER_NAME    = EARTH
REF_FRAME      = TEME
TIME_SYSTEM    = UTC
MEAN_ELEMENT_THEORY = SGP/SGP4

EPOCH          = 2026-03-20T04:05:19.739040
MEAN_MOTION    = 14.39779426
ECCENTRICITY   = .00079323
INCLINATION    = 98.4478
RA_OF_ASC_NODE = 150.5101
ARG_OF_PERICENTER = 109.2400
MEAN_ANOMALY   = 305.3389

EPHEMERIS_TYPE = 0
CLASSIFICATION_TYPE = U
NORAD_CAT_ID   = 23561
ELEMENT_SET_NO = 999
REV_AT_EPOCH   = 62075
BSTAR          = .86414358E-4
MEAN_MOTION_DOT = .228E-5
MEAN_MOTION_DDOT = 0

CCSDS_OMM_VERS = 2.0
CREATION_DATE  = 
ORIGINATOR     = 

OBJECT_NAME    = SL-16 R/B
OBJECT_ID      = 1995-058B
CENTER_NAME    = EARTH
REF_FRAME      = TEME
TIME_SYSTEM    = UTC
MEAN_ELEMENT_THEORY = SGP/SGP4

EPOCH          = 2026-03-20T07:17:17.202048
MEAN_MOTION    = 14.15500744
ECCENTRICITY   = .00102856
INCLINATION    = 71.0221
RA_OF_ASC_NODE = 157.9730
ARG_OF_PERICENTER = 106.2330
MEAN_ANOMALY   = 253.9925

EPHEMERIS_TYPE = 0
CLASSIFICATION_TYPE = U
NORAD_CAT_ID   = 23705
ELEMENT_SET_NO = 999
REV_AT_EPOCH   = 56935
BSTAR          = .28235009E-4
MEAN_MOTION_DOT = .8E-7
MEAN_MOTION_DDOT = 0

CCSDS_OMM_VERS = 2.0
CREATION_DATE  = 
ORIGINATOR     = 

OBJECT_NAME    = SL-16 R/B
OBJECT_ID      = 1996-051B
CENTER_NAME    = EARTH
REF_FRAME      = TEME
TIME_SYSTEM    = UTC
MEAN_ELEMENT_THEORY = SGP/SGP4

EPOCH          = 2026-03-20T07:02:32.078112
MEAN_MOTION    = 14.12418460
ECCENTRICITY   = .00141843
INCLINATION    = 70.7597
RA_OF_ASC_NODE = 152.7964
ARG_OF_PERICENTER = 131.3765
MEAN_ANOMALY   = 228.8577

EPHEMERIS_TYPE = 0
CLASSIFICATION_TYPE = U
NORAD_CAT_ID   = 24298
ELEMENT_SET_NO = 999
REV_AT_EPOCH   = 52314
BSTAR          = .77351698E-4
MEAN_MOTION_DOT = .94E-6
MEAN_MOTION_DDOT = 0

CCSDS_OMM_VERS = 2.0
CREATION_DATE  = 
ORIGINATOR     = 

OBJECT_NAME    = ORBVIEW 2 (SEASTAR)
OBJECT_ID      = 1997-037A
CENTER_NAME    = EARTH
REF_FRAME      = TEME
TIME_SYSTEM    = UTC
MEAN_ELEMENT_THEORY = SGP/SGP4

EPOCH          = 2026-03-20T06:59:35.348640
MEAN_MOTION    = 14.35502008
ECCENTRICITY   = .00027711
INCLINATION    = 98.8584
RA_OF_ASC_NODE = 243.8850
ARG_OF_PERICENTER = 49.5766
MEAN_ANOMALY   = 310.5660

EPHEMERIS_TYPE = 0
CLASSIFICATION_TYPE = U
NORAD_CAT_ID   = 24883
ELEMENT_SET_NO = 999
REV_AT_EPOCH   = 50999
BSTAR          = .91739836E-4
MEAN_MOTION_DOT = .217E-5
MEAN_MOTION_DDOT = 0

CCSDS_OMM_VERS = 2.0
CREATION_DATE  = 
ORIGINATOR     = 

OBJECT_NAME    = SL-16 R/B
OBJECT_ID      = 1998-043G
CENTER_NAME    = EARTH
REF_FRAME      = TEME
TIME_SYSTEM    = UTC
MEAN_ELEMENT_THEORY = SGP/SGP4

EPOCH          = 2026-03-20T06:08:46.013568
MEAN_MOTION    = 14.26052051
ECCENTRICITY   = .00096579
INCLINATION    = 98.8273
RA_OF_ASC_NODE = 32.6954
ARG_OF_PERICENTER = 350.2730
MEAN_ANOMALY   = 9.8261

EPHEMERIS_TYPE = 0
CLASSIFICATION_TYPE = U
NORAD_CAT_ID   = 25400
ELEMENT_SET_NO = 999
REV_AT_EPOCH   = 44049
BSTAR          = .3627685E-4
MEAN_MOTION_DOT = .41E-6
MEAN_MOTION_DDOT = 0

